[{"OBJECT_NAME":"STARLINK-31554","OBJECT_ID":"2024-045T","EPOCH":"2026-03-09T10:58:10.623360","MEAN_MOTION":15.27573123,"ECCENTRICITY":0.00014722,"INCLINATION":43.0054,"RA_OF_ASC_NODE":94.0421,"ARG_OF_PERICENTER":276.0564,"MEAN_ANOMALY":84.012,"EPHEMERIS_TYPE":0,"CLASSIFICATION_TYPE":"U","NORAD_CAT_ID":59195,"ELEMENT_SET_NO":999,"REV_AT_EPOCH":11312,"BSTAR":-2.7212081e-5,"MEAN_MOTION_DOT":-1.011e-5,"MEAN_MOTION_DDOT":0},{"OBJECT_NAME":"ELECTRON KICK STAGE R\/B","OBJECT_ID":"2023-100H","EPOCH":"2026-03-09T16:45:37.763136","MEAN_MOTION":14.68103413,"ECCENTRICITY":0.03085221,"INCLINATION":99.3329,"RA_OF_ASC_NODE":332.428,"ARG_OF_PERICENTER":173.253,"MEAN_ANOMALY":187.2976,"EPHEMERIS_TYPE":0,"CLASSIFICATION_TYPE":"U","NORAD_CAT_ID":57393,"ELEMENT_SET_NO":999,"REV_AT_EPOCH":14066,"BSTAR":0.00057943845,"MEAN_MOTION_DOT":6.836e-5,"MEAN_MOTION_DDOT":0}]
